[
  {
    "OBJECT_NAME": "STARLINK-3043",
    "OBJECT_ID": "21082BB",
    "EPOCH": "2025-11-11T01:56:40.824384",
    "MEAN_MOTION": 14.98334677,
    "ECCENTRICITY": 0.0002734,
    "INCLINATION": 69.9991,
    "RA_OF_ASC_NODE": 193.4987,
    "ARG_OF_PERICENTER": 271.1756,
    "MEAN_ANOMALY": 88.9089,
    "EPHEMERIS_TYPE": 0,
    "CLASSIFICATION_TYPE": "U",
    "NORAD_CAT_ID": 49179,
    "ELEMENT_SET_NO": 999,
    "REV_AT_EPOCH": 22919,
    "BSTAR": 0.0001253,
    "MEAN_MOTION_DOT": 1.403e-05,
    "MEAN_MOTION_DDOT": 0.0,
    "TLE_LINE1": "1 49179U 21082BB  25315.08102806  .00001403  00000+0  12530-3 0  9995",
    "TLE_LINE2": "2 49179  69.9991 193.4987 0002734 271.1756  88.9089 14.98334677229198",
    "COMMENT": "Grouped by shell and plane from TLE"
  },
  {
    "OBJECT_NAME": "STARLINK-3542",
    "OBJECT_ID": "22022A",
    "EPOCH": "2025-11-11T02:01:18.381792",
    "MEAN_MOTION": 15.08855462,
    "ECCENTRICITY": 0.0001251,
    "INCLINATION": 53.2156,
    "RA_OF_ASC_NODE": 191.5616,
    "ARG_OF_PERICENTER": 82.2341,
    "MEAN_ANOMALY": 277.8794,
    "EPHEMERIS_TYPE": 0,
    "CLASSIFICATION_TYPE": "U",
    "NORAD_CAT_ID": 51852,
    "ELEMENT_SET_NO": 999,
    "REV_AT_EPOCH": 20385,
    "BSTAR": 0.00024438,
    "MEAN_MOTION_DOT": 3.605e-05,
    "MEAN_MOTION_DDOT": 0.0,
    "TLE_LINE1": "1 51852U 22022A   25315.08424053  .00003605  00000+0  24438-3 0  9998",
    "TLE_LINE2": "2 51852  53.2156 191.5616 0001251  82.2341 277.8794 15.08855462203859",
    "COMMENT": "Grouped by shell and plane from TLE"
  },
  {
    "OBJECT_NAME": "STARLINK-3541",
    "OBJECT_ID": "22022C",
    "EPOCH": "2025-11-11T01:55:58.642176",
    "MEAN_MOTION": 15.08941648,
    "ECCENTRICITY": 7.61e-05,
    "INCLINATION": 53.2166,
    "RA_OF_ASC_NODE": 191.5781,
    "ARG_OF_PERICENTER": 162.5649,
    "MEAN_ANOMALY": 197.5369,
    "EPHEMERIS_TYPE": 0,
    "CLASSIFICATION_TYPE": "U",
    "NORAD_CAT_ID": 51854,
    "ELEMENT_SET_NO": 999,
    "REV_AT_EPOCH": 20511,
    "BSTAR": 0.0,
    "MEAN_MOTION_DOT": -0.00024547,
    "MEAN_MOTION_DDOT": 0.0,
    "TLE_LINE1": "1 51854U 22022C   25315.08053984 -.00024547  00000+0 -15253-2 0  9995",
    "TLE_LINE2": "2 51854  53.2166 191.5781 0000761 162.5649 197.5369 15.08941648205112",
    "COMMENT": "Grouped by shell and plane from TLE"
  },
  {
    "OBJECT_NAME": "STARLINK-3545",
    "OBJECT_ID": "22022D",
    "EPOCH": "2025-11-11T01:34:46.585344",
    "MEAN_MOTION": 15.0886023,
    "ECCENTRICITY": 0.00017,
    "INCLINATION": 53.214,
    "RA_OF_ASC_NODE": 191.5664,
    "ARG_OF_PERICENTER": 84.1224,
    "MEAN_ANOMALY": 275.9961,
    "EPHEMERIS_TYPE": 0,
    "CLASSIFICATION_TYPE": "U",
    "NORAD_CAT_ID": 51855,
    "ELEMENT_SET_NO": 999,
    "REV_AT_EPOCH": 20506,
    "BSTAR": 0.00016651,
    "MEAN_MOTION_DOT": 2.364e-05,
    "MEAN_MOTION_DDOT": 0.0,
    "TLE_LINE1": "1 51855U 22022D   25315.06581696  .00002364  00000+0  16651-3 0  9995",
    "TLE_LINE2": "2 51855  53.2140 191.5664 0001700  84.1224 275.9961 15.08860230205067",
    "COMMENT": "Grouped by shell and plane from TLE"
  },
  {
    "OBJECT_NAME": "STARLINK-3568",
    "OBJECT_ID": "22022E",
    "EPOCH": "2025-11-11T00:16:41.916864",
    "MEAN_MOTION": 15.08839488,
    "ECCENTRICITY": 0.0001738,
    "INCLINATION": 53.2165,
    "RA_OF_ASC_NODE": 191.8987,
    "ARG_OF_PERICENTER": 82.8463,
    "MEAN_ANOMALY": 277.2726,
    "EPHEMERIS_TYPE": 0,
    "CLASSIFICATION_TYPE": "U",
    "NORAD_CAT_ID": 51856,
    "ELEMENT_SET_NO": 999,
    "REV_AT_EPOCH": 20513,
    "BSTAR": 8.0424e-05,
    "MEAN_MOTION_DOT": 9.92e-06,
    "MEAN_MOTION_DDOT": 0.0,
    "TLE_LINE1": "1 51856U 22022E   25315.01159626  .00000992  00000+0  80424-4 0  9990",
    "TLE_LINE2": "2 51856  53.2165 191.8987 0001738  82.8463 277.2726 15.08839488205130",
    "COMMENT": "Grouped by shell and plane from TLE"
  },
  {
    "OBJECT_NAME": "STARLINK-3571",
    "OBJECT_ID": "22022F",
    "EPOCH": "2025-11-11T01:36:11.384352",
    "MEAN_MOTION": 15.08834882,
    "ECCENTRICITY": 0.0001453,
    "INCLINATION": 53.2174,
    "RA_OF_ASC_NODE": 191.6499,
    "ARG_OF_PERICENTER": 82.593,
    "MEAN_ANOMALY": 277.5227,
    "EPHEMERIS_TYPE": 0,
    "CLASSIFICATION_TYPE": "U",
    "NORAD_CAT_ID": 51857,
    "ELEMENT_SET_NO": 999,
    "REV_AT_EPOCH": 20511,
    "BSTAR": 0.00017827,
    "MEAN_MOTION_DOT": 2.55e-05,
    "MEAN_MOTION_DDOT": 0.0,
    "TLE_LINE1": "1 51857U 22022F   25315.06679843  .00002550  00000+0  17827-3 0  9992",
    "TLE_LINE2": "2 51857  53.2174 191.6499 0001453  82.5930 277.5227 15.08834882205117",
    "COMMENT": "Grouped by shell and plane from TLE"
  },
  {
    "OBJECT_NAME": "STARLINK-3563",
    "OBJECT_ID": "22022G",
    "EPOCH": "2025-11-11T01:40:06.362976",
    "MEAN_MOTION": 15.08846156,
    "ECCENTRICITY": 0.0001685,
    "INCLINATION": 53.2148,
    "RA_OF_ASC_NODE": 191.6265,
    "ARG_OF_PERICENTER": 93.1876,
    "MEAN_ANOMALY": 266.9309,
    "EPHEMERIS_TYPE": 0,
    "CLASSIFICATION_TYPE": "U",
    "NORAD_CAT_ID": 51858,
    "ELEMENT_SET_NO": 999,
    "REV_AT_EPOCH": 20511,
    "BSTAR": 8.7171e-05,
    "MEAN_MOTION_DOT": 1.1e-05,
    "MEAN_MOTION_DDOT": 0.0,
    "TLE_LINE1": "1 51858U 22022G   25315.06951809  .00001100  00000+0  87171-4 0  9998",
    "TLE_LINE2": "2 51858  53.2148 191.6265 0001685  93.1876 266.9309 15.08846156205114",
    "COMMENT": "Grouped by shell and plane from TLE"
  },
  {
    "OBJECT_NAME": "STARLINK-3700",
    "OBJECT_ID": "22025A",
    "EPOCH": "2025-11-10T16:45:41.208768",
    "MEAN_MOTION": 15.06392588,
    "ECCENTRICITY": 0.0001237,
    "INCLINATION": 53.0544,
    "RA_OF_ASC_NODE": 195.7962,
    "ARG_OF_PERICENTER": 93.5327,
    "MEAN_ANOMALY": 266.5804,
    "EPHEMERIS_TYPE": 0,
    "CLASSIFICATION_TYPE": "U",
    "NORAD_CAT_ID": 51956,
    "ELEMENT_SET_NO": 999,
    "REV_AT_EPOCH": 20311,
    "BSTAR": 3.1519000000000007e-06,
    "MEAN_MOTION_DOT": -2.34e-06,
    "MEAN_MOTION_DDOT": 0.0,
    "TLE_LINE1": "1 51956U 22025A   25314.69839362 -.00000234  00000+0  31519-5 0  9991",
    "TLE_LINE2": "2 51956  53.0544 195.7962 0001237  93.5327 266.5804 15.06392588203115",
    "COMMENT": "Grouped by shell and plane from TLE"
  },
  {
    "OBJECT_NAME": "STARLINK-3692",
    "OBJECT_ID": "22025C",
    "EPOCH": "2025-11-11T00:38:04.192224",
    "MEAN_MOTION": 15.06398416,
    "ECCENTRICITY": 0.0001819,
    "INCLINATION": 53.0544,
    "RA_OF_ASC_NODE": 194.3287,
    "ARG_OF_PERICENTER": 96.4441,
    "MEAN_ANOMALY": 263.6755,
    "EPHEMERIS_TYPE": 0,
    "CLASSIFICATION_TYPE": "U",
    "NORAD_CAT_ID": 51958,
    "ELEMENT_SET_NO": 999,
    "REV_AT_EPOCH": 20316,
    "BSTAR": 2.6945000000000004e-05,
    "MEAN_MOTION_DOT": 1.2e-06,
    "MEAN_MOTION_DDOT": 0.0,
    "TLE_LINE1": "1 51958U 22025C   25315.02643741  .00000120  00000+0  26945-4 0  9994",
    "TLE_LINE2": "2 51958  53.0544 194.3287 0001819  96.4441 263.6755 15.06398416203161",
    "COMMENT": "Grouped by shell and plane from TLE"
  },
  {
    "OBJECT_NAME": "STARLINK-3697",
    "OBJECT_ID": "22025G",
    "EPOCH": "2025-11-11T01:43:42.918528",
    "MEAN_MOTION": 15.06382726,
    "ECCENTRICITY": 0.000161,
    "INCLINATION": 53.0518,
    "RA_OF_ASC_NODE": 198.9235,
    "ARG_OF_PERICENTER": 81.4104,
    "MEAN_ANOMALY": 278.7068,
    "EPHEMERIS_TYPE": 0,
    "CLASSIFICATION_TYPE": "U",
    "NORAD_CAT_ID": 51962,
    "ELEMENT_SET_NO": 999,
    "REV_AT_EPOCH": 20310,
    "BSTAR": 0.0,
    "MEAN_MOTION_DOT": -3.326e-05,
    "MEAN_MOTION_DDOT": 0.0,
    "TLE_LINE1": "1 51962U 22025G   25315.07202452 -.00003326  00000+0 -20455-3 0  9996",
    "TLE_LINE2": "2 51962  53.0518 198.9235 0001610  81.4104 278.7068 15.06382726203104",
    "COMMENT": "Grouped by shell and plane from TLE"
  },
  {
    "OBJECT_NAME": "STARLINK-3675",
    "OBJECT_ID": "22025H",
    "EPOCH": "2025-11-11T01:57:39.951360",
    "MEAN_MOTION": 15.06405127,
    "ECCENTRICITY": 9.86e-05,
    "INCLINATION": 53.0563,
    "RA_OF_ASC_NODE": 194.0228,
    "ARG_OF_PERICENTER": 72.2389,
    "MEAN_ANOMALY": 287.8707,
    "EPHEMERIS_TYPE": 0,
    "CLASSIFICATION_TYPE": "U",
    "NORAD_CAT_ID": 51963,
    "ELEMENT_SET_NO": 999,
    "REV_AT_EPOCH": 20317,
    "BSTAR": 9.7089e-05,
    "MEAN_MOTION_DOT": 1.165e-05,
    "MEAN_MOTION_DDOT": 0.0,
    "TLE_LINE1": "1 51963U 22025H   25315.08171240  .00001165  00000+0  97089-4 0  9993",
    "TLE_LINE2": "2 51963  53.0563 194.0228 0000986  72.2389 287.8707 15.06405127203171",
    "COMMENT": "Grouped by shell and plane from TLE"
  },
  {
    "OBJECT_NAME": "STARLINK-3690",
    "OBJECT_ID": "22025J",
    "EPOCH": "2025-11-11T01:13:19.593408",
    "MEAN_MOTION": 15.06403454,
    "ECCENTRICITY": 0.0001524,
    "INCLINATION": 53.0547,
    "RA_OF_ASC_NODE": 199.6083,
    "ARG_OF_PERICENTER": 92.6966,
    "MEAN_ANOMALY": 267.4197,
    "EPHEMERIS_TYPE": 0,
    "CLASSIFICATION_TYPE": "U",
    "NORAD_CAT_ID": 51964,
    "ELEMENT_SET_NO": 999,
    "REV_AT_EPOCH": 20309,
    "BSTAR": 0.0001735,
    "MEAN_MOTION_DOT": 2.304e-05,
    "MEAN_MOTION_DDOT": 0.0,
    "TLE_LINE1": "1 51964U 22025J   25315.05092122  .00002304  00000+0  17350-3 0  9990",
    "TLE_LINE2": "2 51964  53.0547 199.6083 0001524  92.6966 267.4197 15.06403454203099",
    "COMMENT": "Grouped by shell and plane from TLE"
  },
  {
    "OBJECT_NAME": "STARLINK-3681",
    "OBJECT_ID": "22025N",
    "EPOCH": "2025-11-11T02:22:18.626016",
    "MEAN_MOTION": 15.06401426,
    "ECCENTRICITY": 0.0001494,
    "INCLINATION": 53.0545,
    "RA_OF_ASC_NODE": 199.3013,
    "ARG_OF_PERICENTER": 89.0685,
    "MEAN_ANOMALY": 271.0475,
    "EPHEMERIS_TYPE": 0,
    "CLASSIFICATION_TYPE": "U",
    "NORAD_CAT_ID": 51968,
    "ELEMENT_SET_NO": 999,
    "REV_AT_EPOCH": 20310,
    "BSTAR": 9.549100000000001e-05,
    "MEAN_MOTION_DOT": 1.141e-05,
    "MEAN_MOTION_DDOT": 0.0,
    "TLE_LINE1": "1 51968U 22025N   25315.09882669  .00001141  00000+0  95491-4 0  9992",
    "TLE_LINE2": "2 51968  53.0545 199.3013 0001494  89.0685 271.0475 15.06401426203104",
    "COMMENT": "Grouped by shell and plane from TLE"
  }
]